YAOGAN-36 04A           
1 54746U 22171A   26068.56522612  .00008745  00000+0  40159-3 0  9995
2 54746  34.9894 125.4870 0007143 123.6550 236.4846 15.19645021179957
SCS-01 E                
1 63986U 25100E   26068.81778690  .00008140  00000+0  39416-3 0  9996
2 63986  97.4267 144.0575 0004186  16.3517 343.7852 15.18808974 45526
